[{"OBJECT_NAME":"STARLINK-2605","OBJECT_ID":"2021-038AR","EPOCH":"2026-03-09T23:17:41.845344","MEAN_MOTION":15.30198522,"ECCENTRICITY":0.00011813,"INCLINATION":53.1604,"RA_OF_ASC_NODE":331.2339,"ARG_OF_PERICENTER":98.9551,"MEAN_ANOMALY":261.1583,"EPHEMERIS_TYPE":0,"CLASSIFICATION_TYPE":"U","NORAD_CAT_ID":48392,"ELEMENT_SET_NO":999,"REV_AT_EPOCH":26870,"BSTAR":0.00025363201,"MEAN_MOTION_DOT":7.16e-5,"MEAN_MOTION_DDOT":0},{"OBJECT_NAME":"ORBITER SN3","OBJECT_ID":"2023-084AE","EPOCH":"2026-03-09T23:12:21.976128","MEAN_MOTION":15.32943891,"ECCENTRICITY":0.00075889,"INCLINATION":97.61,"RA_OF_ASC_NODE":206.6768,"ARG_OF_PERICENTER":331.7947,"MEAN_ANOMALY":28.2883,"EPHEMERIS_TYPE":0,"CLASSIFICATION_TYPE":"U","NORAD_CAT_ID":56960,"ELEMENT_SET_NO":999,"REV_AT_EPOCH":15228,"BSTAR":0.00032835432,"MEAN_MOTION_DOT":0.00010378,"MEAN_MOTION_DDOT":0}]
